{"type": "FeatureCollection", "features": [{"type": "Feature", "properties": {"norad_id": 24876, "name": "GPS BIIR-2  (PRN 13)", "group": "gps-ops", "lat": 54.91872764223352, "lon": -148.79166386618462, "alt_km": 19983.483385556872, "timestamp": "2025-12-14T20:40:32.030121+00:00", "meta": {"OBJECT_NAME": "GPS BIIR-2  (PRN 13)", "OBJECT_ID": "1997-035A", "EPOCH": "2025-12-13T17:30:57.889152", "MEAN_MOTION": 2.00563654, "ECCENTRICITY": 0.0096776, "INCLINATION": 55.8957, "RA_OF_ASC_NODE": 105.8301, "ARG_OF_PERICENTER": 56.9937, "MEAN_ANOMALY": 303.9094, "EPHEMERIS_TYPE": 0, "CLASSIFICATION_TYPE": "U", "NORAD_CAT_ID": 24876, "ELEMENT_SET_NO": 999, "REV_AT_EPOCH": 20823, "BSTAR": 0, "MEAN_MOTION_DOT": 0, "MEAN_MOTION_DDOT": 0}, "tle": {"line1": "1 24876U 97035A   25347.72983668  .00000000  00000+0  00000+0 0  9999", "line2": "2 24876  55.8957 105.8301 0096776  56.9937 303.9094  2.00563654208234"}}, "geometry": {"type": "Point", "coordinates": [-148.79166386618462, 54.91872764223352]}}, {"type": "Feature", "properties": {"norad_id": 26360, "name": "GPS BIIR-4  (PRN 20)", "group": "gps-ops", "lat": -7.876638540034913, "lon": -147.68215478649284, "alt_km": 20119.90543494647, "timestamp": "2025-12-14T20:40:32.030148+00:00", "meta": {"OBJECT_NAME": "GPS BIIR-4  (PRN 20)", "OBJECT_ID": "2000-025A", "EPOCH": "2025-12-13T20:04:22.857024", "MEAN_MOTION": 2.00567674, "ECCENTRICITY": 0.00388834, "INCLINATION": 55.0459, "RA_OF_ASC_NODE": 26.7934, "ARG_OF_PERICENTER": 242.101, "MEAN_ANOMALY": 287.6867, "EPHEMERIS_TYPE": 0, "CLASSIFICATION_TYPE": "U", "NORAD_CAT_ID": 26360, "ELEMENT_SET_NO": 999, "REV_AT_EPOCH": 18755, "BSTAR": 0, "MEAN_MOTION_DOT": -9.7e-07, "MEAN_MOTION_DDOT": 0}, "tle": {"line1": "1 26360U 00025A   25347.83637566 -.00000097  00000+0  00000+0 0  9994", "line2": "2 26360  55.0459  26.7934 0038883 242.1010 287.6867  2.00567674187555"}}, "geometry": {"type": "Point", "coordinates": [-147.68215478649284, -7.876638540034913]}}, {"type": "Feature", "properties": {"norad_id": 26407, "name": "GPS BIIR-5  (PRN 22)", "group": "gps-ops", "lat": 24.888640919493177, "lon": -118.4739219744828, "alt_km": 20169.26517005747, "timestamp": "2025-12-14T20:40:32.030180+00:00", "meta": {"OBJECT_NAME": "GPS BIIR-5  (PRN 22)", "OBJECT_ID": "2000-040A", "EPOCH": "2025-12-14T01:30:44.898624", "MEAN_MOTION": 2.00568024, "ECCENTRICITY": 0.01259399, "INCLINATION": 54.8905, "RA_OF_ASC_NODE": 222.5163, "ARG_OF_PERICENTER": 301.8352, "MEAN_ANOMALY": 231.2171, "EPHEMERIS_TYPE": 0, "CLASSIFICATION_TYPE": "U", "NORAD_CAT_ID": 26407, "ELEMENT_SET_NO": 999, "REV_AT_EPOCH": 18623, "BSTAR": 0, "MEAN_MOTION_DOT": 3.2e-07, "MEAN_MOTION_DDOT": 0}, "tle": {"line1": "1 26407U 00040A   25348.06301966  .00000032  00000+0  00000+0 0  9999", "line2": "2 26407  54.8905 222.5163 0125939 301.8352 231.2171  2.00568024186238"}}, "geometry": {"type": "Point", "coordinates": [-118.4739219744828, 24.888640919493177]}}, {"type": "Feature", "properties": {"norad_id": 27663, "name": "GPS BIIR-8  (PRN 16)", "group": "gps-ops", "lat": 10.600319633509478, "lon": 34.750953660817714, "alt_km": 20342.482239841396, "timestamp": "2025-12-14T20:40:32.030196+00:00", "meta": {"OBJECT_NAME": "GPS BIIR-8  (PRN 16)", "OBJECT_ID": "2003-005A", "EPOCH": "2025-12-13T09:15:26.891424", "MEAN_MOTION": 2.00570905, "ECCENTRICITY": 0.01474873, "INCLINATION": 54.9232, "RA_OF_ASC_NODE": 222.3526, "ARG_OF_PERICENTER": 51.8083, "MEAN_ANOMALY": 128.0829, "EPHEMERIS_TYPE": 0, "CLASSIFICATION_TYPE": "U", "NORAD_CAT_ID": 27663, "ELEMENT_SET_NO": 999, "REV_AT_EPOCH": 16758, "BSTAR": 0, "MEAN_MOTION_DOT": 2.3e-07, "MEAN_MOTION_DDOT": 0}, "tle": {"line1": "1 27663U 03005A   25347.38572791  .00000023  00000+0  00000+0 0  9998", "line2": "2 27663  54.9232 222.3526 0147487  51.8083 128.0829  2.00570905167584"}}, "geometry": {"type": "Point", "coordinates": [34.750953660817714, 10.600319633509478]}}, {"type": "Feature", "properties": {"norad_id": 28190, "name": "GPS BIIR-11 (PRN 19)", "group": "gps-ops", "lat": -28.295097807217942, "lon": -99.02942166504357, "alt_km": 20450.80081496238, "timestamp": "2025-12-14T20:40:32.030209+00:00", "meta": {"OBJECT_NAME": "GPS BIIR-11 (PRN 19)", "OBJECT_ID": "2004-009A", "EPOCH": "2025-12-11T22:20:18.324960", "MEAN_MOTION": 2.00560799, "ECCENTRICITY": 0.0108335, "INCLINATION": 54.9863, "RA_OF_ASC_NODE": 283.2515, "ARG_OF_PERICENTER": 167.6362, "MEAN_ANOMALY": 200.4215, "EPHEMERIS_TYPE": 0, "CLASSIFICATION_TYPE": "U", "NORAD_CAT_ID": 28190, "ELEMENT_SET_NO": 999, "REV_AT_EPOCH": 15919, "BSTAR": 0, "MEAN_MOTION_DOT": -7.6e-07, "MEAN_MOTION_DDOT": 0}, "tle": {"line1": "1 28190U 04009A   25345.93076765 -.00000076  00000+0  00000+0 0  9997", "line2": "2 28190  54.9863 283.2515 0108335 167.6362 200.4215  2.00560799159191"}}, "geometry": {"type": "Point", "coordinates": [-99.02942166504357, -28.295097807217942]}}, {"type": "Feature", "properties": {"norad_id": 28474, "name": "GPS BIIR-13 (PRN 02)", "group": "gps-ops", "lat": 21.279557239494654, "lon": -11.998928086194443, "alt_km": 20070.098974298697, "timestamp": "2025-12-14T20:40:32.030221+00:00", "meta": {"OBJECT_NAME": "GPS BIIR-13 (PRN 02)", "OBJECT_ID": "2004-045A", "EPOCH": "2025-12-12T12:01:27.782400", "MEAN_MOTION": 2.00569519, "ECCENTRICITY": 0.0170757, "INCLINATION": 55.2408, "RA_OF_ASC_NODE": 332.4152, "ARG_OF_PERICENTER": 309.2412, "MEAN_ANOMALY": 170.6572, "EPHEMERIS_TYPE": 0, "CLASSIFICATION_TYPE": "U", "NORAD_CAT_ID": 28474, "ELEMENT_SET_NO": 999, "REV_AT_EPOCH": 15468, "BSTAR": 0, "MEAN_MOTION_DOT": -8.8e-07, "MEAN_MOTION_DDOT": 0}, "tle": {"line1": "1 28474U 04045A   25346.50101600 -.00000088  00000+0  00000+0 0  9996", "line2": "2 28474  55.2408 332.4152 0170757 309.2412 170.6572  2.00569519154688"}}, "geometry": {"type": "Point", "coordinates": [-11.998928086194443, 21.279557239494654]}}, {"type": "Feature", "properties": {"norad_id": 28874, "name": "GPS BIIRM-1 (PRN 17)", "group": "gps-ops", "lat": -12.7027318703441, "lon": -88.46665525171278, "alt_km": 19959.045496711282, "timestamp": "2025-12-14T20:40:32.030233+00:00", "meta": {"OBJECT_NAME": "GPS BIIRM-1 (PRN 17)", "OBJECT_ID": "2005-038A", "EPOCH": "2025-12-10T14:00:21.521088", "MEAN_MOTION": 2.00578486, "ECCENTRICITY": 0.0131701, "INCLINATION": 55.0338, "RA_OF_ASC_NODE": 280.7877, "ARG_OF_PERICENTER": 293.4518, "MEAN_ANOMALY": 200.7371, "EPHEMERIS_TYPE": 0, "CLASSIFICATION_TYPE": "U", "NORAD_CAT_ID": 28874, "ELEMENT_SET_NO": 999, "REV_AT_EPOCH": 14805, "BSTAR": 0, "MEAN_MOTION_DOT": -6.4e-07, "MEAN_MOTION_DDOT": 0}, "tle": {"line1": "1 28874U 05038A   25344.58358242 -.00000064  00000+0  00000+0 0  9999", "line2": "2 28874  55.0338 280.7877 0131701 293.4518 200.7371  2.00578486148057"}}, "geometry": {"type": "Point", "coordinates": [-88.46665525171278, -12.7027318703441]}}, {"type": "Feature", "properties": {"norad_id": 29486, "name": "GPS BIIRM-2 (PRN 31)", "group": "gps-ops", "lat": -48.15922262513518, "lon": 30.99890680398535, "alt_km": 20464.96954133296, "timestamp": "2025-12-14T20:40:32.030244+00:00", "meta": {"OBJECT_NAME": "GPS BIIRM-2 (PRN 31)", "OBJECT_ID": "2006-042A", "EPOCH": "2025-12-14T06:43:38.650944", "MEAN_MOTION": 2.00554123, "ECCENTRICITY": 0.01073383, "INCLINATION": 54.6943, "RA_OF_ASC_NODE": 158.6796, "ARG_OF_PERICENTER": 51.9952, "MEAN_ANOMALY": 134.6159, "EPHEMERIS_TYPE": 0, "CLASSIFICATION_TYPE": "U", "NORAD_CAT_ID": 29486, "ELEMENT_SET_NO": 999, "REV_AT_EPOCH": 14068, "BSTAR": 0, "MEAN_MOTION_DOT": 1.01e-06, "MEAN_MOTION_DDOT": 0}, "tle": {"line1": "1 29486U 06042A   25348.28030846  .00000101  00000+0  00000+0 0  9994", "line2": "2 29486  54.6943 158.6796 0107338  51.9952 134.6159  2.00554123140687"}}, "geometry": {"type": "Point", "coordinates": [30.99890680398535, -48.15922262513518]}}, {"type": "Feature", "properties": {"norad_id": 29601, "name": "GPS BIIRM-3 (PRN 12)", "group": "gps-ops", "lat": -43.14625581895333, "lon": -179.74602850202174, "alt_km": 20374.123243923787, "timestamp": "2025-12-14T20:40:32.030256+00:00", "meta": {"OBJECT_NAME": "GPS BIIRM-3 (PRN 12)", "OBJECT_ID": "2006-052A", "EPOCH": "2025-12-11T22:46:47.068032", "MEAN_MOTION": 2.00573524, "ECCENTRICITY": 0.00877389, "INCLINATION": 54.9707, "RA_OF_ASC_NODE": 221.4296, "ARG_OF_PERICENTER": 87.4221, "MEAN_ANOMALY": 273.6564, "EPHEMERIS_TYPE": 0, "CLASSIFICATION_TYPE": "U", "NORAD_CAT_ID": 29601, "ELEMENT_SET_NO": 999, "REV_AT_EPOCH": 13965, "BSTAR": 0, "MEAN_MOTION_DOT": 9e-08, "MEAN_MOTION_DDOT": 0}, "tle": {"line1": "1 29601U 06052A   25345.94915588  .00000009  00000+0  00000+0 0  9996", "line2": "2 29601  54.9707 221.4296 0087738  87.4221 273.6564  2.00573524139650"}}, "geometry": {"type": "Point", "coordinates": [-179.74602850202174, -43.14625581895333]}}, {"type": "Feature", "properties": {"norad_id": 32260, "name": "GPS BIIRM-4 (PRN 15)", "group": "gps-ops", "lat": 53.53307702905191, "lon": 167.42328490073191, "alt_km": 19740.618859575145, "timestamp": "2025-12-14T20:40:32.030268+00:00", "meta": {"OBJECT_NAME": "GPS BIIRM-4 (PRN 15)", "OBJECT_ID": "2007-047A", "EPOCH": "2025-12-13T18:00:56.680128", "MEAN_MOTION": 2.00564495, "ECCENTRICITY": 0.0164139, "INCLINATION": 53.9559, "RA_OF_ASC_NODE": 87.7167, "ARG_OF_PERICENTER": 85.2596, "MEAN_ANOMALY": 276.6041, "EPHEMERIS_TYPE": 0, "CLASSIFICATION_TYPE": "U", "NORAD_CAT_ID": 32260, "ELEMENT_SET_NO": 999, "REV_AT_EPOCH": 13309, "BSTAR": 0, "MEAN_MOTION_DOT": -4.4e-07, "MEAN_MOTION_DDOT": 0}, "tle": {"line1": "1 32260U 07047A   25347.75065602 -.00000044  00000+0  00000+0 0  9990", "line2": "2 32260  53.9559  87.7167 0164139  85.2596 276.6041  2.00564495133093"}}, "geometry": {"type": "Point", "coordinates": [167.42328490073191, 53.53307702905191]}}]}